#aV2021  1 21  0  0  0.00000000     288 DD+AD WGS84 FIT  NGA
## 2141 345600.00000000   300.00000000 59235 0.0000000000000
+   32     1  2  3  4  5  6  7  8  9 10 11 12 13 14 15 16 17
+         18 19 20 21 22 23 24 25 26 27 28 29 30 31 32  0  0
+          0  0  0  0  0  0  0  0  0  0  0  0  0  0  0  0  0
+          0  0  0  0  0  0  0  0  0  0  0  0  0  0  0  0  0
+          0  0  0  0  0  0  0  0  0  0  0  0  0  0  0  0  0
++         2  2  2  2  2  2  2  2  2  2  2  2  2  2  2  2  2
++         2  2  2  2  2  2  2  2  2  2  2  2  2  2  2  0  0
++         0  0  0  0  0  0  0  0  0  0  0  0  0  0  0  0  0
++         0  0  0  0  0  0  0  0  0  0  0  0  0  0  0  0  0
++         0  0  0  0  0  0  0  0  0  0  0  0  0  0  0  0  0
%c cc cc ccc ccc cccc cccc cccc cccc ccccc ccccc ccccc ccccc
%c cc cc ccc ccc cccc cccc cccc cccc ccccc ccccc ccccc ccccc
%f  0.0000000  0.000000000  0.00000000000  0.000000000000000
%f  0.0000000  0.000000000  0.00000000000  0.000000000000000
%i    0    0    0    0      0      0      0      0         0
%i    0    0    0    0      0      0      0      0         0
/*      NGA, ST. LOUIS,MO.                                  
/*   EPHEMERIS COMPUTED FROM 2 DAYS OF DATA                 
/*   EPOCHA v5 SMOOTHER                                     
/*   G2139 IERS2010 SATAF SATAPC                            
*  2021  1 21  6 50  0.00000000
P  1  14233.500603  13574.945981 -18249.373836    776.496321                    
V  1 -22494.711121  -1180.724172 -18342.519667     -0.067071                    
P  2  10240.151154 -14240.625283  20608.916368   -568.303963                    
V  2  24690.768322   1235.411416 -11786.186980     -0.041361                    
P  3  13183.970014  22874.976126   3283.852470    -61.823894                    
V  3   -441.222578   4900.342001 -31494.105744     -0.099175                    
P  4   5248.281844  16498.068960  20130.180322   -174.353483                    
V  4 -16206.039039  19812.445843 -12063.937156     -0.029000                    
P  5   -350.193082 -22402.252456  13972.681544    -31.551946                    
V  5  10412.180022  14986.612109  24207.921862     -0.010126                    
P  6  22626.609044  -6387.510526  12469.024962     -4.415193                    
V  6  15469.176935   3060.293063 -26592.844307      0.003983                    
P  7  25138.004813   7035.960818   6477.857165     29.554922                    
V  7  -7902.809143   1767.345218  29824.864007      0.141305                    
P  8   -955.102513  21069.023214 -15955.043321     -7.379268                    
V  8 -12993.465926  15813.056573  21934.965794     -0.013961                    
P  9  14780.300165   5240.270742  21373.850057   -314.954155                    
V  9 -14887.520800  22908.256899   4642.599879     -0.039321                    
P 10 -15770.444075    882.382676 -21288.271151    -43.892006                    
V 10 -11172.434429 -24812.711802   6952.683980     -0.084154                    
P 11   4446.861292  15913.187239 -21265.397931    -47.103936                    
V 11 -24184.690699   9961.245768   2077.218778      0.105836                    
P 12  -9266.297604 -24979.749963   -445.539561     10.027193                    
V 12   2171.291050   -546.622402 -31969.709441     -0.052362                    
P 13  11424.192555 -22070.167655  -9338.346275     88.233327                    
V 13   9660.596194  -7013.982815  28933.475421      0.041851                    
P 14  16396.502109   1357.970406 -20861.162252     88.541493                    
V 14   9357.451772  24777.757763   8965.170518      0.052669                    
P 15  -2697.902173 -20806.473955 -16436.493793   -174.878953                    
V 15  12012.684160 -16751.885788  20025.110874      0.026028                    
P 16  -2813.774218  21525.938768  14741.364031   -268.203755                    
V 16  -8554.324697 -17413.813334  23878.875965     -0.055816                    
P 17  19947.187464 -11439.591533 -12846.565231    382.916968                    
V 17  -9081.523689  14480.795509 -26128.941784      0.047814                    
P 18 -25828.749028  -5255.143866   3514.235513    342.714148                    
V 18   4708.598457  -2061.327189  31428.918956      0.025491                    
P 19  19999.294822 -16140.685730  -6799.894023    -49.112302                    
V 19  -3835.858066   7611.603145 -30699.782193      0.050201                    
P 20 -19707.379812 -10306.636968 -14775.486093    525.067895                    
V 20  -8180.645595 -16894.694855  22516.623886     -0.001762                    
P 21   6168.584459  14652.606211 -20609.589467     88.659407                    
V 21 -27831.910172    230.893371  -7486.695071      0.033020                    
P 22   9701.036277  24203.112632  -5298.737216   -694.409007                    
V 22  -6508.599574  -4256.361970 -30064.872550      0.068548                    
P 23 -18037.154553 -10159.680165 -16684.894453    116.818721                    
V 23  -7874.808056 -19674.484791  20486.003140      0.012510                    
P 24  -9800.737291 -14942.766264 -19995.544928      3.397617                    
V 24  24878.140710   -635.426509 -11467.471319     -0.005084                    
P 25 -16828.983047 -17069.811288  11482.518226     64.109495                    
V 25  -4311.330912 -14398.082683 -26855.071048      0.078114                    
P 26  -9909.875321  13346.648074  20617.163988     33.083858                    
V 26 -13092.974553 -22952.875854   8806.127041      0.056487                    
P 27 -11548.635609  23088.179924  -5518.671131    -60.315436                    
V 27  -5989.497777   4199.964110  31310.793011     -0.076765                    
P 28  14773.084215  -1846.054430 -21416.386552    626.808617                    
V 28   9227.437573  27000.982013   4114.521140     -0.052381                    
P 29 -13372.472002  -6627.773996  21936.069384   -279.824430                    
V 29  17356.635474 -21806.727190   3945.765580     -0.071977                    
P 30  26194.889843   -672.673599  -4973.321453   -372.279315                    
V 30   5936.492579   3993.637455  30227.316297     -0.059799                    
P 31 -21351.383771   7636.989521  14124.219205    -95.191424                    
V 31 -17561.863182  -3945.207801 -23822.859358     -0.023247                    
P 32 -19484.504737  12682.611506 -12596.103144     15.363105                    
V 32   7092.183018 -14799.971576 -25847.569810      0.018659                    
EOF
